IRIDIUM 136             
1 42962U 17061H   23206.21396444  .00000330  00000+0  11085-3 0  9997
2 42962  86.3968 107.4279 0001971  80.7384 279.4034 14.34218465303196
